{
  "type": "FeatureCollection",
  "features": [
    {
      "type": "Feature",
      "properties": {
        "norad_id": 29486,
        "name": "GPS BIIRM-2 (PRN 31)",
        "group": "gps-ops",
        "lat": -53.749317246283546,
        "lon": 83.34944788564546,
        "alt_km": 20383.051245306033,
        "timestamp": "2025-12-16T21:38:57.433275+00:00",
        "meta_object_name": "GPS BIIRM-2 (PRN 31)",
        "meta_object_id": "2006-042A",
        "meta_epoch": "2025-12-15T18:26:47.569632",
        "meta_mean_motion": 2.0055408,
        "meta_eccentricity": 0.01073392,
        "meta_inclination": 54.6945,
        "meta_ra_of_asc_node": 158.6205,
        "meta_arg_of_pericenter": 52.0304,
        "meta_mean_anomaly": 129.1611,
        "meta_ephemeris_type": 0,
        "meta_classification_type": "U",
        "meta_norad_cat_id": 29486,
        "meta_element_set_no": 999,
        "meta_rev_at_epoch": 14071,
        "meta_bstar": 0,
        "meta_mean_motion_dot": 9.5e-07,
        "meta_mean_motion_ddot": 0,
        "tle_line1": "1 29486U 06042A   25349.76860613  .00000095  00000+0  00000+0 0  9993",
        "tle_line2": "2 29486  54.6945 158.6205 0107339  52.0304 129.1611  2.00554080140716"
      },
      "geometry": {
        "type": "Point",
        "coordinates": [
          83.34944788564546,
          -53.749317246283546
        ]
      }
    },
    {
      "type": "Feature",
      "properties": {
        "norad_id": 29601,
        "name": "GPS BIIRM-3 (PRN 12)",
        "group": "gps-ops",
        "lat": -19.072663958793374,
        "lon": -152.78315474732506,
        "alt_km": 20265.468552659822,
        "timestamp": "2025-12-16T21:38:57.433286+00:00",
        "meta_object_name": "GPS BIIRM-3 (PRN 12)",
        "meta_object_id": "2006-052A",
        "meta_epoch": "2025-12-15T22:30:08.867232",
        "meta_mean_motion": 2.00573827,
        "meta_eccentricity": 0.00878265,
        "meta_inclination": 54.9699,
        "meta_ra_of_asc_node": 221.2713,
        "meta_arg_of_pericenter": 87.4673,
        "meta_mean_anomaly": 273.6251,
        "meta_ephemeris_type": 0,
        "meta_classification_type": "U",
        "meta_norad_cat_id": 29601,
        "meta_element_set_no": 999,
        "meta_rev_at_epoch": 13973,
        "meta_bstar": 0,
        "meta_mean_motion_dot": 6e-07,
        "meta_mean_motion_ddot": 0,
        "tle_line1": "1 29601U 06052A   25349.93760263  .00000060  00000+0  00000+0 0  9994",
        "tle_line2": "2 29601  54.9699 221.2713 0087826  87.4673 273.6251  2.00573827139739"
      },
      "geometry": {
        "type": "Point",
        "coordinates": [
          -152.78315474732506,
          -19.072663958793374
        ]
      }
    },
    {
      "type": "Feature",
      "properties": {
        "norad_id": 32260,
        "name": "GPS BIIRM-4 (PRN 15)",
        "group": "gps-ops",
        "lat": 45.343194371314446,
        "lon": -139.80144697716287,
        "alt_km": 19810.301450525953,
        "timestamp": "2025-12-16T21:38:57.433297+00:00",
        "meta_object_name": "GPS BIIRM-4 (PRN 15)",
        "meta_object_id": "2007-047A",
        "meta_epoch": "2025-12-16T05:50:40.703424",
        "meta_mean_motion": 2.00564422,
        "meta_eccentricity": 0.01640582,
        "meta_inclination": 53.9575,
        "meta_ra_of_asc_node": 87.6137,
        "meta_arg_of_pericenter": 85.2876,
        "meta_mean_anomaly": 276.573,
        "meta_ephemeris_type": 0,
        "meta_classification_type": "U",
        "meta_norad_cat_id": 32260,
        "meta_element_set_no": 999,
        "meta_rev_at_epoch": 13314,
        "meta_bstar": 0,
        "meta_mean_motion_dot": -5.5e-07,
        "meta_mean_motion_ddot": 0,
        "tle_line1": "1 32260U 07047A   25350.24352666 -.00000055  00000+0  00000+0 0  9999",
        "tle_line2": "2 32260  53.9575  87.6137 0164058  85.2876 276.5730  2.00564422133148"
      },
      "geometry": {
        "type": "Point",
        "coordinates": [
          -139.80144697716287,
          45.343194371314446
        ]
      }
    },
    {
      "type": "Feature",
      "properties": {
        "norad_id": 32384,
        "name": "GPS BIIRM-5 (PRN 29)",
        "group": "gps-ops",
        "lat": -49.170790240709735,
        "lon": 155.01484757471914,
        "alt_km": 20178.485392834704,
        "timestamp": "2025-12-16T21:38:57.433309+00:00",
        "meta_object_name": "GPS BIIRM-5 (PRN 29)",
        "meta_object_id": "2007-062A",
        "meta_epoch": "2025-12-16T07:14:28.728960",
        "meta_mean_motion": 2.00577559,
        "meta_eccentricity": 0.00322451,
        "meta_inclination": 55.1791,
        "meta_ra_of_asc_node": 281.5031,
        "meta_arg_of_pericenter": 162.3169,
        "meta_mean_anomaly": 10.9325,
        "meta_ephemeris_type": 0,
        "meta_classification_type": "U",
        "meta_norad_cat_id": 32384,
        "meta_element_set_no": 999,
        "meta_rev_at_epoch": 13184,
        "meta_bstar": 0,
        "meta_mean_motion_dot": -6.6e-07,
        "meta_mean_motion_ddot": 0,
        "tle_line1": "1 32384U 07062A   25350.30172140 -.00000066  00000+0  00000+0 0  9999",
        "tle_line2": "2 32384  55.1791 281.5031 0032245 162.3169  10.9325  2.00577559131841"
      },
      "geometry": {
        "type": "Point",
        "coordinates": [
          155.01484757471914,
          -49.170790240709735
        ]
      }
    },
    {
      "type": "Feature",
      "properties": {
        "norad_id": 32711,
        "name": "GPS BIIRM-6 (PRN 07)",
        "group": "gps-ops",
        "lat": 9.131312863705679,
        "lon": -29.398197587472932,
        "alt_km": 20043.545068560667,
        "timestamp": "2025-12-16T21:38:57.433320+00:00",
        "meta_object_name": "GPS BIIRM-6 (PRN 07)",
        "meta_object_id": "2008-012A",
        "meta_epoch": "2025-12-15T15:57:56.403360",
        "meta_mean_motion": 2.00565798,
        "meta_eccentricity": 0.02025653,
        "meta_inclination": 54.4774,
        "meta_ra_of_asc_node": 157.2561,
        "meta_arg_of_pericenter": 244.9811,
        "meta_mean_anomaly": 112.9132,
        "meta_ephemeris_type": 0,
        "meta_classification_type": "U",
        "meta_norad_cat_id": 32711,
        "meta_element_set_no": 999,
        "meta_rev_at_epoch": 13007,
        "meta_bstar": 0,
        "meta_mean_motion_dot": 9.3e-07,
        "meta_mean_motion_ddot": 0,
        "tle_line1": "1 32711U 08012A   25349.66523615  .00000093  00000+0  00000+0 0  9992",
        "tle_line2": "2 32711  54.4774 157.2561 0202565 244.9811 112.9132  2.00565798130075"
      },
      "geometry": {
        "type": "Point",
        "coordinates": [
          -29.398197587472932,
          9.131312863705679
        ]
      }
    },
    {
      "type": "Feature",
      "properties": {
        "norad_id": 35752,
        "name": "GPS BIIRM-8 (PRN 05)",
        "group": "gps-ops",
        "lat": -9.493313754281294,
        "lon": -138.90947140177818,
        "alt_km": 20229.235362703734,
        "timestamp": "2025-12-16T21:38:57.433332+00:00",
        "meta_object_name": "GPS BIIRM-8 (PRN 05)",
        "meta_object_id": "2009-043A",
        "meta_epoch": "2025-12-15T22:20:02.106816",
        "meta_mean_motion": 2.00565586,
        "meta_eccentricity": 0.00517182,
        "meta_inclination": 56.0932,
        "meta_ra_of_asc_node": 34.6571,
        "meta_arg_of_pericenter": 81.8462,
        "meta_mean_anomaly": 127.6063,
        "meta_ephemeris_type": 0,
        "meta_classification_type": "U",
        "meta_norad_cat_id": 35752,
        "meta_element_set_no": 999,
        "meta_rev_at_epoch": 11968,
        "meta_bstar": 0,
        "meta_mean_motion_dot": -8.6e-07,
        "meta_mean_motion_ddot": 0,
        "tle_line1": "1 35752U 09043A   25349.93057994 -.00000086  00000+0  00000+0 0  9990",
        "tle_line2": "2 35752  56.0932  34.6571 0051718  81.8462 127.6063  2.00565586119683"
      },
      "geometry": {
        "type": "Point",
        "coordinates": [
          -138.90947140177818,
          -9.493313754281294
        ]
      }
    },
    {
      "type": "Feature",
      "properties": {
        "norad_id": 36585,
        "name": "GPS BIIF-1  (PRN 25)",
        "group": "gps-ops",
        "lat": -39.9306829697547,
        "lon": 178.93413949132625,
        "alt_km": 20338.384156509564,
        "timestamp": "2025-12-16T21:38:57.433342+00:00",
        "meta_object_name": "GPS BIIF-1  (PRN 25)",
        "meta_object_id": "2010-022A",
        "meta_epoch": "2025-12-16T01:01:22.883808",
        "meta_mean_motion": 2.00553454,
        "meta_eccentricity": 0.01262565,
        "meta_inclination": 54.2996,
        "meta_ra_of_asc_node": 215.9407,
        "meta_arg_of_pericenter": 65.1133,
        "meta_mean_anomaly": 343.5127,
        "meta_ephemeris_type": 0,
        "meta_classification_type": "U",
        "meta_norad_cat_id": 36585,
        "meta_element_set_no": 999,
        "meta_rev_at_epoch": 11392,
        "meta_bstar": 0,
        "meta_mean_motion_dot": 7.2e-07,
        "meta_mean_motion_ddot": 0,
        "tle_line1": "1 36585U 10022A   25350.04262597  .00000072  00000+0  00000+0 0  9999",
        "tle_line2": "2 36585  54.2996 215.9407 0126256  65.1133 343.5127  2.00553454113922"
      },
      "geometry": {
        "type": "Point",
        "coordinates": [
          178.93413949132625,
          -39.9306829697547
        ]
      }
    }
  ]
}